[
  {
    "OBJECT_NAME": "STARLINK-34755",
    "OBJECT_ID": "25158J",
    "EPOCH": "2025-11-11T04:23:18.434400",
    "MEAN_MOTION": 15.02069968,
    "ECCENTRICITY": 0.0001379,
    "INCLINATION": 97.6027,
    "RA_OF_ASC_NODE": 178.6776,
    "ARG_OF_PERICENTER": 81.1421,
    "MEAN_ANOMALY": 278.996,
    "EPHEMERIS_TYPE": 0,
    "CLASSIFICATION_TYPE": "U",
    "NORAD_CAT_ID": 64940,
    "ELEMENT_SET_NO": 999,
    "REV_AT_EPOCH": 1761,
    "BSTAR": 0.0007140499999999999,
    "MEAN_MOTION_DOT": 9.322e-05,
    "MEAN_MOTION_DDOT": 0.0,
    "TLE_LINE1": "1 64940U 25158J   25315.18285225  .00009322  00000+0  71405-3 0  9998",
    "TLE_LINE2": "2 64940  97.6027 178.6776 0001379  81.1421 278.9960 15.02069968 17617",
    "COMMENT": "Grouped by shell and plane from TLE"
  },
  {
    "OBJECT_NAME": "STARLINK-34740",
    "OBJECT_ID": "25158K",
    "EPOCH": "2025-11-11T03:53:13.792416",
    "MEAN_MOTION": 15.05650807,
    "ECCENTRICITY": 0.0003053,
    "INCLINATION": 97.6027,
    "RA_OF_ASC_NODE": 177.2966,
    "ARG_OF_PERICENTER": 84.9196,
    "MEAN_ANOMALY": 275.2379,
    "EPHEMERIS_TYPE": 0,
    "CLASSIFICATION_TYPE": "U",
    "NORAD_CAT_ID": 64941,
    "ELEMENT_SET_NO": 999,
    "REV_AT_EPOCH": 1746,
    "BSTAR": 0.00049921,
    "MEAN_MOTION_DOT": 7.15e-05,
    "MEAN_MOTION_DDOT": 0.0,
    "TLE_LINE1": "1 64941U 25158K   25315.16196519  .00007150  00000+0  49921-3 0  9999",
    "TLE_LINE2": "2 64941  97.6027 177.2966 0003053  84.9196 275.2379 15.05650807 17463",
    "COMMENT": "Grouped by shell and plane from TLE"
  },
  {
    "OBJECT_NAME": "STARLINK-34742",
    "OBJECT_ID": "25158L",
    "EPOCH": "2025-11-11T03:45:14.751072",
    "MEAN_MOTION": 15.05655554,
    "ECCENTRICITY": 0.0002868,
    "INCLINATION": 97.5998,
    "RA_OF_ASC_NODE": 177.2988,
    "ARG_OF_PERICENTER": 90.1491,
    "MEAN_ANOMALY": 270.0064,
    "EPHEMERIS_TYPE": 0,
    "CLASSIFICATION_TYPE": "U",
    "NORAD_CAT_ID": 64942,
    "ELEMENT_SET_NO": 999,
    "REV_AT_EPOCH": 1752,
    "BSTAR": 0.00070237,
    "MEAN_MOTION_DOT": 0.0001009,
    "MEAN_MOTION_DDOT": 0.0,
    "TLE_LINE1": "1 64942U 25158L   25315.15642073  .00010090  00000+0  70237-3 0  9991",
    "TLE_LINE2": "2 64942  97.5998 177.2988 0002868  90.1491 270.0064 15.05655554 17529",
    "COMMENT": "Grouped by shell and plane from TLE"
  },
  {
    "OBJECT_NAME": "STARLINK-34719",
    "OBJECT_ID": "25158M",
    "EPOCH": "2025-11-11T04:01:11.363232",
    "MEAN_MOTION": 15.05658518,
    "ECCENTRICITY": 0.0002276,
    "INCLINATION": 97.6018,
    "RA_OF_ASC_NODE": 177.2894,
    "ARG_OF_PERICENTER": 80.6941,
    "MEAN_ANOMALY": 279.4544,
    "EPHEMERIS_TYPE": 0,
    "CLASSIFICATION_TYPE": "U",
    "NORAD_CAT_ID": 64943,
    "ELEMENT_SET_NO": 999,
    "REV_AT_EPOCH": 1752,
    "BSTAR": 0.0006324400000000001,
    "MEAN_MOTION_DOT": 9.079e-05,
    "MEAN_MOTION_DDOT": 0.0,
    "TLE_LINE1": "1 64943U 25158M   25315.16749263  .00009079  00000+0  63244-3 0  9997",
    "TLE_LINE2": "2 64943  97.6018 177.2894 0002276  80.6941 279.4544 15.05658518 17526",
    "COMMENT": "Grouped by shell and plane from TLE"
  },
  {
    "OBJECT_NAME": "STARLINK-34373",
    "OBJECT_ID": "25158N",
    "EPOCH": "2025-11-11T04:45:04.661568",
    "MEAN_MOTION": 15.05650103,
    "ECCENTRICITY": 0.0002884,
    "INCLINATION": 97.602,
    "RA_OF_ASC_NODE": 177.2505,
    "ARG_OF_PERICENTER": 80.1032,
    "MEAN_ANOMALY": 280.0521,
    "EPHEMERIS_TYPE": 0,
    "CLASSIFICATION_TYPE": "U",
    "NORAD_CAT_ID": 64944,
    "ELEMENT_SET_NO": 999,
    "REV_AT_EPOCH": 1752,
    "BSTAR": 0.0008286900000000001,
    "MEAN_MOTION_DOT": 0.00011917,
    "MEAN_MOTION_DDOT": 0.0,
    "TLE_LINE1": "1 64944U 25158N   25315.19797062  .00011917  00000+0  82869-3 0  9999",
    "TLE_LINE2": "2 64944  97.6020 177.2505 0002884  80.1032 280.0521 15.05650103 17525",
    "COMMENT": "Grouped by shell and plane from TLE"
  },
  {
    "OBJECT_NAME": "STARLINK-34758",
    "OBJECT_ID": "25158P",
    "EPOCH": "2025-11-11T04:13:08.992128",
    "MEAN_MOTION": 15.0565543,
    "ECCENTRICITY": 0.0002052,
    "INCLINATION": 97.6006,
    "RA_OF_ASC_NODE": 177.2812,
    "ARG_OF_PERICENTER": 69.286,
    "MEAN_ANOMALY": 290.8587,
    "EPHEMERIS_TYPE": 0,
    "CLASSIFICATION_TYPE": "U",
    "NORAD_CAT_ID": 64945,
    "ELEMENT_SET_NO": 999,
    "REV_AT_EPOCH": 1752,
    "BSTAR": 0.00061263,
    "MEAN_MOTION_DOT": 8.791e-05,
    "MEAN_MOTION_DDOT": 0.0,
    "TLE_LINE1": "1 64945U 25158P   25315.17579852  .00008791  00000+0  61263-3 0  9994",
    "TLE_LINE2": "2 64945  97.6006 177.2812 0002052  69.2860 290.8587 15.05655430 17524",
    "COMMENT": "Grouped by shell and plane from TLE"
  },
  {
    "OBJECT_NAME": "STARLINK-34753",
    "OBJECT_ID": "25158Q",
    "EPOCH": "2025-11-11T04:44:43.815840",
    "MEAN_MOTION": 15.04845885,
    "ECCENTRICITY": 0.0002569,
    "INCLINATION": 97.6007,
    "RA_OF_ASC_NODE": 177.4006,
    "ARG_OF_PERICENTER": 82.6493,
    "MEAN_ANOMALY": 277.5025,
    "EPHEMERIS_TYPE": 0,
    "CLASSIFICATION_TYPE": "U",
    "NORAD_CAT_ID": 64946,
    "ELEMENT_SET_NO": 999,
    "REV_AT_EPOCH": 1753,
    "BSTAR": 0.00052279,
    "MEAN_MOTION_DOT": 7.33e-05,
    "MEAN_MOTION_DDOT": 0.0,
    "TLE_LINE1": "1 64946U 25158Q   25315.19772935  .00007330  00000+0  52279-3 0  9999",
    "TLE_LINE2": "2 64946  97.6007 177.4006 0002569  82.6493 277.5025 15.04845885 17531",
    "COMMENT": "Grouped by shell and plane from TLE"
  },
  {
    "OBJECT_NAME": "STARLINK-34747",
    "OBJECT_ID": "25158R",
    "EPOCH": "2025-11-11T04:21:07.495200",
    "MEAN_MOTION": 15.05661446,
    "ECCENTRICITY": 0.0002826,
    "INCLINATION": 97.6004,
    "RA_OF_ASC_NODE": 177.276,
    "ARG_OF_PERICENTER": 81.5703,
    "MEAN_ANOMALY": 278.5844,
    "EPHEMERIS_TYPE": 0,
    "CLASSIFICATION_TYPE": "U",
    "NORAD_CAT_ID": 64947,
    "ELEMENT_SET_NO": 999,
    "REV_AT_EPOCH": 1752,
    "BSTAR": 0.00054391,
    "MEAN_MOTION_DOT": 7.799e-05,
    "MEAN_MOTION_DDOT": 0.0,
    "TLE_LINE1": "1 64947U 25158R   25315.18133675  .00007799  00000+0  54391-3 0  9997",
    "TLE_LINE2": "2 64947  97.6004 177.2760 0002826  81.5703 278.5844 15.05661446 17521",
    "COMMENT": "Grouped by shell and plane from TLE"
  },
  {
    "OBJECT_NAME": "STARLINK-34630",
    "OBJECT_ID": "25158S",
    "EPOCH": "2025-11-11T05:12:58.419648",
    "MEAN_MOTION": 15.0565874,
    "ECCENTRICITY": 0.0003431,
    "INCLINATION": 97.6015,
    "RA_OF_ASC_NODE": 177.3782,
    "ARG_OF_PERICENTER": 77.7777,
    "MEAN_ANOMALY": 282.3834,
    "EPHEMERIS_TYPE": 0,
    "CLASSIFICATION_TYPE": "U",
    "NORAD_CAT_ID": 64948,
    "ELEMENT_SET_NO": 999,
    "REV_AT_EPOCH": 1753,
    "BSTAR": 0.0006810399999999999,
    "MEAN_MOTION_DOT": 9.783e-05,
    "MEAN_MOTION_DDOT": 0.0,
    "TLE_LINE1": "1 64948U 25158S   25315.21734282  .00009783  00000+0  68104-3 0  9995",
    "TLE_LINE2": "2 64948  97.6015 177.3782 0003431  77.7777 282.3834 15.05658740 17536",
    "COMMENT": "Grouped by shell and plane from TLE"
  },
  {
    "OBJECT_NAME": "STARLINK-34689",
    "OBJECT_ID": "25158T",
    "EPOCH": "2025-11-11T04:53:01.118688",
    "MEAN_MOTION": 15.05660813,
    "ECCENTRICITY": 0.0002845,
    "INCLINATION": 97.602,
    "RA_OF_ASC_NODE": 177.2416,
    "ARG_OF_PERICENTER": 84.1624,
    "MEAN_ANOMALY": 275.9928,
    "EPHEMERIS_TYPE": 0,
    "CLASSIFICATION_TYPE": "U",
    "NORAD_CAT_ID": 64949,
    "ELEMENT_SET_NO": 999,
    "REV_AT_EPOCH": 1752,
    "BSTAR": 0.0005200399999999999,
    "MEAN_MOTION_DOT": 7.453e-05,
    "MEAN_MOTION_DDOT": 0.0,
    "TLE_LINE1": "1 64949U 25158T   25315.20348517  .00007453  00000+0  52004-3 0  9991",
    "TLE_LINE2": "2 64949  97.6020 177.2416 0002845  84.1624 275.9928 15.05660813 17522",
    "COMMENT": "Grouped by shell and plane from TLE"
  },
  {
    "OBJECT_NAME": "STARLINK-34586",
    "OBJECT_ID": "25158U",
    "EPOCH": "2025-11-11T04:37:04.324224",
    "MEAN_MOTION": 15.05657615,
    "ECCENTRICITY": 0.0002419,
    "INCLINATION": 97.6012,
    "RA_OF_ASC_NODE": 177.2577,
    "ARG_OF_PERICENTER": 84.0177,
    "MEAN_ANOMALY": 276.1326,
    "EPHEMERIS_TYPE": 0,
    "CLASSIFICATION_TYPE": "U",
    "NORAD_CAT_ID": 64950,
    "ELEMENT_SET_NO": 999,
    "REV_AT_EPOCH": 1752,
    "BSTAR": 0.0005555299999999999,
    "MEAN_MOTION_DOT": 7.966e-05,
    "MEAN_MOTION_DDOT": 0.0,
    "TLE_LINE1": "1 64950U 25158U   25315.19241116  .00007966  00000+0  55553-3 0  9999",
    "TLE_LINE2": "2 64950  97.6012 177.2577 0002419  84.0177 276.1326 15.05657615 17523",
    "COMMENT": "Grouped by shell and plane from TLE"
  },
  {
    "OBJECT_NAME": "STARLINK-34738",
    "OBJECT_ID": "25158V",
    "EPOCH": "2025-11-11T03:49:13.761984",
    "MEAN_MOTION": 15.05654834,
    "ECCENTRICITY": 0.0001997,
    "INCLINATION": 97.6028,
    "RA_OF_ASC_NODE": 177.302,
    "ARG_OF_PERICENTER": 84.797,
    "MEAN_ANOMALY": 275.3485,
    "EPHEMERIS_TYPE": 0,
    "CLASSIFICATION_TYPE": "U",
    "NORAD_CAT_ID": 64951,
    "ELEMENT_SET_NO": 999,
    "REV_AT_EPOCH": 1752,
    "BSTAR": 0.00059208,
    "MEAN_MOTION_DOT": 8.494e-05,
    "MEAN_MOTION_DDOT": 0.0,
    "TLE_LINE1": "1 64951U 25158V   25315.15918706  .00008494  00000+0  59208-3 0  9990",
    "TLE_LINE2": "2 64951  97.6028 177.3020 0001997  84.7970 275.3485 15.05654834 17520",
    "COMMENT": "Grouped by shell and plane from TLE"
  },
  {
    "OBJECT_NAME": "STARLINK-34744",
    "OBJECT_ID": "25158W",
    "EPOCH": "2025-11-11T05:00:59.656320",
    "MEAN_MOTION": 15.05659749,
    "ECCENTRICITY": 0.0002683,
    "INCLINATION": 97.6023,
    "RA_OF_ASC_NODE": 177.229,
    "ARG_OF_PERICENTER": 88.1102,
    "MEAN_ANOMALY": 272.0432,
    "EPHEMERIS_TYPE": 0,
    "CLASSIFICATION_TYPE": "U",
    "NORAD_CAT_ID": 64952,
    "ELEMENT_SET_NO": 999,
    "REV_AT_EPOCH": 1752,
    "BSTAR": 0.00059504,
    "MEAN_MOTION_DOT": 8.538e-05,
    "MEAN_MOTION_DDOT": 0.0,
    "TLE_LINE1": "1 64952U 25158W   25315.20902380  .00008538  00000+0  59504-3 0  9996",
    "TLE_LINE2": "2 64952  97.6023 177.2290 0002683  88.1102 272.0432 15.05659749 17528",
    "COMMENT": "Grouped by shell and plane from TLE"
  }
]